1 5855U          19329.74305556  .00000000  00000-0  00000-0 0 00000
2 5855 097.6160 192.7150 0000000 000.0000 117.7510 15.01914300000000
1 5855U          19329.79305556  .00000000  00000-0  00000-0 0 00000
2 5855 097.6160 192.7640 0000000 000.0000 027.7510 15.01914300000000
1 5855U          19329.89930556  .00000000  00000-0  00000-0 0 00000
2 5855 097.6150 192.8690 0000000 000.0000 241.5010 15.01914300000000
1 5855U          19329.98194444  .00000000  00000-0  00000-0 0 00000
2 5855 097.6150 192.9500 0000000 000.0000 327.7510 15.01914300000000
1 5855U          19330.06250000  .00000000  00000-0  00000-0 0 00000
2 5855 097.6150 193.0300 0000000 000.0000 042.7510 15.01914300000000
1 5855U          19330.15069444  .00000000  00000-0  00000-0 0 00000
2 5855 097.6150 193.1170 0000000 000.0000 159.0010 15.01914300000000
1 5855U          19330.24027778  .00000000  00000-0  00000-0 0 00000
2 5855 097.6150 193.2050 0000000 000.0000 282.7510 15.01914300000000
1 5855U          19330.32916667  .00000000  00000-0  00000-0 0 00000
2 5855 097.6150 193.2930 0000000 000.0000 042.7510 15.01914300000000
1 5855U          19330.37916667  .00000000  00000-0  00000-0 0 00000
2 5855 097.6150 193.3420 0000000 000.0000 312.7510 15.01914300000000
1 5855U          19330.46527778  .00000000  00000-0  00000-0 0 00000
2 5855 097.6140 193.4270 0000000 000.0000 057.7510 15.01914300000000
1 5855U          19330.55000000  .00000000  00000-0  00000-0 0 00000
2 5855 097.6140 193.5100 0000000 000.0000 155.2510 15.01914300000000
1 5855U          19330.64861111  .00000000  00000-0  00000-0 0 00000
2 5855 097.6140 193.6070 0000000 000.0000 327.7510 15.01914300000000
1 5855U          19330.72638889  .00000000  00000-0  00000-0 0 00000
2 5855 097.6140 193.6840 0000000 000.0000 027.7510 15.01914300000000
1 5855U          19330.81111111  .00000000  00000-0  00000-0 0 00000
2 5855 097.6140 193.7680 0000000 000.0000 125.2510 15.01914300000000
1 5855U          19330.89791667  .00000000  00000-0  00000-0 0 00000
2 5855 097.6140 193.8530 0000000 000.0000 234.0010 15.01914300000000
1 5855U          19330.99097222  .00000000  00000-0  00000-0 0 00000
2 5855 097.6130 193.9450 0000000 000.0000 016.5000 15.01914300000000
1 5855U          19331.07569444  .00000000  00000-0  00000-0 0 00000
2 5855 097.6130 194.0280 0000000 000.0000 114.0000 15.01914300000000
1 5855U          19331.14652778  .00000000  00000-0  00000-0 0 00000
2 5855 097.6130 194.0980 0000000 000.0000 136.5000 15.01914300000000
1 5855U          19331.21250000  .00000000  00000-0  00000-0 0 00000
2 5855 097.6130 194.1630 0000000 000.0000 132.7500 15.01914300000000
1 5855U          19331.29305556  .00000000  00000-0  00000-0 0 00000
2 5855 097.6130 194.2430 0000000 000.0000 207.7500 15.01914300000000
1 5855U          19331.41527778  .00000000  00000-0  00000-0 0 00000
2 5855 097.6130 194.3630 0000000 000.0000 147.7500 15.01914300000000
1 5855U          19331.49513889  .00000000  00000-0  00000-0 0 00000
2 5855 097.6130 194.4420 0000000 000.0000 219.0000 15.01914300000000
1 5855U          19331.57500000  .00000000  00000-0  00000-0 0 00000
2 5855 097.6120 194.5200 0000000 000.0000 290.2500 15.01914300000000
1 5855U          19331.66527778  .00000000  00000-0  00000-0 0 00000
2 5855 097.6120 194.6090 0000000 000.0000 057.7500 15.01914300000000
1 5855U          19331.75000000  .00000000  00000-0  00000-0 0 00000
2 5855 097.6120 194.6930 0000000 000.0000 155.2500 15.01914300000000
1 5855U          19331.81388889  .00000000  00000-0  00000-0 0 00000
2 5855 097.6120 194.7560 0000000 000.0000 140.2500 15.01914300000000
1 5855U          19331.90763889  .00000000  00000-0  00000-0 0 00000
2 5855 097.6120 194.8480 0000000 000.0000 286.5000 15.01914300000000
1 5855U          19331.97708333  .00000000  00000-0  00000-0 0 00000
2 5855 097.6120 194.9170 0000000 000.0000 301.5000 15.01914300000000
1 5855U          19332.05069444  .00000000  00000-0  00000-0 0 00000
2 5855 097.6120 194.9890 0000000 000.0000 339.0000 15.01914300000000
1 5855U          19332.13472222  .00000000  00000-0  00000-0 0 00000
2 5855 097.6110 195.0720 0000000 000.0000 072.7500 15.01914300000000
1 5855U          19332.21875000  .00000000  00000-0  00000-0 0 00000
2 5855 097.6110 195.1550 0000000 000.0000 166.5000 15.01914300000000
1 5855U          19332.31319444  .00000000  00000-0  00000-0 0 00000
2 5855 097.6110 195.2480 0000000 000.0000 316.5000 15.01914300000000
1 5855U          19332.40416667  .00000000  00000-0  00000-0 0 00000
2 5855 097.6110 195.3380 0000000 000.0000 087.7500 15.01914300000000
