NORAD_CAT_ID,EPOCH,MEAN_MOTION,ECCENTRICITY,INCLINATION,RA_OF_ASC_NODE,ARG_OF_PERICENTER,MEAN_ANOMALY,SEMIMAJOR_AXIS,PERIOD,APOGEE,PERIGEE
5855,2019-11-25 17:50:00,15.019143,0.0,97.616,192.715,0.0,117.751,6939.130783,95.87799999999999,560.993783,560.993783
5855,2019-11-25 19:02:00,15.019143,0.0,97.616,192.764,0.0,27.750999999999998,6939.130783,95.87799999999999,560.993783,560.993783
5855,2019-11-25 21:35:00,15.019143,0.0,97.615,192.86900000000003,0.0,241.50099999999998,6939.130783,95.87799999999999,560.993783,560.993783
5855,2019-11-25 23:34:00,15.019143,0.0,97.615,192.95,0.0,327.751,6939.130783,95.87799999999999,560.993783,560.993783
5855,2019-11-26 01:30:00,15.019143,0.0,97.615,193.03,0.0,42.751000000000005,6939.130783,95.87799999999999,560.993783,560.993783
5855,2019-11-26 03:37:00,15.019143,0.0,97.615,193.11700000000002,0.0,159.001,6939.130783,95.87799999999999,560.993783,560.993783
5855,2019-11-26 05:46:00,15.019143,0.0,97.615,193.205,0.0,282.751,6939.130783,95.87799999999999,560.993783,560.993783
5855,2019-11-26 07:54:00,15.019143,0.0,97.615,193.293,0.0,42.751000000000005,6939.130783,95.87799999999999,560.993783,560.993783
5855,2019-11-26 09:06:00,15.019143,0.0,97.615,193.342,0.0,312.751,6939.130783,95.87799999999999,560.993783,560.993783
5855,2019-11-26 11:10:00,15.019143,0.0,97.61399999999999,193.42700000000002,0.0,57.751000000000005,6939.130783,95.87799999999999,560.993783,560.993783
5855,2019-11-26 13:12:00,15.019143,0.0,97.61399999999999,193.51,0.0,155.251,6939.130783,95.87799999999999,560.993783,560.993783
5855,2019-11-26 15:34:00,15.019143,0.0,97.61399999999999,193.607,0.0,327.751,6939.130783,95.87799999999999,560.993783,560.993783
5855,2019-11-26 17:26:00,15.019143,0.0,97.61399999999999,193.68400000000003,0.0,27.750999999999998,6939.130783,95.87799999999999,560.993783,560.993783
5855,2019-11-26 19:28:00,15.019143,0.0,97.61399999999999,193.768,0.0,125.251,6939.130783,95.87799999999999,560.993783,560.993783
5855,2019-11-26 21:33:00,15.019143,0.0,97.61399999999999,193.85299999999998,0.0,234.00099999999998,6939.130783,95.87799999999999,560.993783,560.993783
5855,2019-11-26 23:47:00,15.019143,0.0,97.613,193.945,0.0,16.5,6939.130783,95.87799999999999,560.993783,560.993783
5855,2019-11-27 01:49:00,15.019143,0.0,97.613,194.028,0.0,114.0,6939.130783,95.87799999999999,560.993783,560.993783
5855,2019-11-27 03:31:00,15.019143,0.0,97.613,194.09799999999998,0.0,136.5,6939.130783,95.87799999999999,560.993783,560.993783
5855,2019-11-27 05:06:00,15.019143,0.0,97.613,194.16299999999998,0.0,132.75,6939.130783,95.87799999999999,560.993783,560.993783
5855,2019-11-27 07:02:00,15.019143,0.0,97.613,194.243,0.0,207.75,6939.130783,95.87799999999999,560.993783,560.993783
5855,2019-11-27 09:58:00,15.019143,0.0,97.613,194.363,0.0,147.75,6939.130783,95.87799999999999,560.993783,560.993783
5855,2019-11-27 11:53:00,15.019143,0.0,97.613,194.442,0.0,219.0,6939.130783,95.87799999999999,560.993783,560.993783
5855,2019-11-27 13:48:00,15.019143,0.0,97.61200000000001,194.52,0.0,290.25,6939.130783,95.87799999999999,560.993783,560.993783
5855,2019-11-27 15:58:00,15.019143,0.0,97.61200000000001,194.609,0.0,57.75,6939.130783,95.87799999999999,560.993783,560.993783
5855,2019-11-27 18:00:00,15.019143,0.0,97.61200000000001,194.69299999999998,0.0,155.25,6939.130783,95.87799999999999,560.993783,560.993783
5855,2019-11-27 19:32:00,15.019143,0.0,97.61200000000001,194.75599999999997,0.0,140.25,6939.130783,95.87799999999999,560.993783,560.993783
5855,2019-11-27 21:47:00,15.019143,0.0,97.61200000000001,194.84799999999998,0.0,286.5,6939.130783,95.87799999999999,560.993783,560.993783
5855,2019-11-27 23:27:00,15.019143,0.0,97.61200000000001,194.917,0.0,301.5,6939.130783,95.87799999999999,560.993783,560.993783
5855,2019-11-28 01:13:00,15.019143,0.0,97.61200000000001,194.989,0.0,339.0,6939.130783,95.87799999999999,560.993783,560.993783
5855,2019-11-28 03:14:00,15.019143,0.0,97.611,195.072,0.0,72.75,6939.130783,95.87799999999999,560.993783,560.993783
5855,2019-11-28 05:15:00,15.019143,0.0,97.611,195.155,0.0,166.5,6939.130783,95.87799999999999,560.993783,560.993783
5855,2019-11-28 07:31:00,15.019143,0.0,97.611,195.248,0.0,316.5,6939.130783,95.87799999999999,560.993783,560.993783
5855,2019-11-28 09:42:00,15.019143,0.0,97.611,195.338,0.0,87.75,6939.130783,95.87799999999999,560.993783,560.993783
